start=new Date('2022-11-14T00:00:00.000Z').valueOf();
sats=[{"COUNTRY_CODE":"US","REF_FRAME":"TEME","FILE":"3653957","EPOCH":"2022-11-13T22:00:00.999936","OBJECT_NAME":"STARLINK-4477","RCS_SIZE":"LARGE","MEAN_ANOMALY":"338.9239","OBJECT_TYPE":"PAYLOAD","TLE_LINE1":"1 53546U 22101V   22317.91667824 -.00853253  00000-0 -56369-1 0  9995","GP_ID":"217695720","RA_OF_ASC_NODE":"93.5070","REV_AT_EPOCH":"130","ARG_OF_PERICENTER":"66.7734","CENTER_NAME":"EARTH","APOAPSIS":"538.172","ELEMENT_SET_NO":"999","EPHEMERIS_TYPE":"0","ECCENTRICITY":"0.00012890","INCLINATION":"53.2162","LAUNCH_DATE":"2022-08-19","SEMIMAJOR_AXIS":"6915.415","MEAN_MOTION_DOT":"-0.00853253","MEAN_MOTION_DDOT":"0.0000000000000","PERIAPSIS":"536.389","PERIOD":"95.387","DECAY_DATE":null,"MEAN_ELEMENT_THEORY":"SGP4","TIME_SYSTEM":"UTC","NORAD_CAT_ID":"53546","TLE_LINE2":"2 53546  53.2162  93.5070 0001289  66.7734 338.9239 15.09646858  1304","BSTAR":"-0.05636900000000","CLASSIFICATION_TYPE":"U","SITE":"AFETR","MEAN_MOTION":"15.09646858","OBJECT_ID":"2022-101V"},{"CENTER_NAME":"EARTH","APOAPSIS":"540.674","ELEMENT_SET_NO":"999","TLE_LINE1":"1 53547U 22101W   22317.69754856 -.00002316  00000-0 -12747-3 0  9993","GP_ID":"217695117","RA_OF_ASC_NODE":"104.9608","REV_AT_EPOCH":"1400","ARG_OF_PERICENTER":"76.9010","EPOCH":"2022-11-13T16:44:28.195584","OBJECT_NAME":"STARLINK-4474","RCS_SIZE":"LARGE","MEAN_ANOMALY":"283.2130","OBJECT_TYPE":"PAYLOAD","COUNTRY_CODE":"US","REF_FRAME":"TEME","FILE":"3653957","CLASSIFICATION_TYPE":"U","SITE":"AFETR","MEAN_MOTION":"15.08835300","OBJECT_ID":"2022-101W","DECAY_DATE":null,"MEAN_ELEMENT_THEORY":"SGP4","TIME_SYSTEM":"UTC","NORAD_CAT_ID":"53547","TLE_LINE2":"2 53547  53.2155 104.9608 0001322  76.9010 283.2130 15.08835300 14003","BSTAR":"-0.00012747000000","MEAN_MOTION_DOT":"-0.00002316","MEAN_MOTION_DDOT":"0.0000000000000","PERIAPSIS":"538.845","PERIOD":"95.438","EPHEMERIS_TYPE":"0","INCLINATION":"53.2155","ECCENTRICITY":"0.00013220","SEMIMAJOR_AXIS":"6917.895","LAUNCH_DATE":"2022-08-19"},{"PERIOD":"95.438","MEAN_MOTION_DOT":"-0.00000844","PERIAPSIS":"538.870","MEAN_MOTION_DDOT":"0.0000000000000","INCLINATION":"53.2183","ECCENTRICITY":"0.00012910","SEMIMAJOR_AXIS":"6917.898","LAUNCH_DATE":"2022-08-19","EPHEMERIS_TYPE":"0","MEAN_MOTION":"15.08834176","SITE":"AFETR","OBJECT_ID":"2022-101X","CLASSIFICATION_TYPE":"U","NORAD_CAT_ID":"53548","TIME_SYSTEM":"UTC","MEAN_ELEMENT_THEORY":"SGP4","BSTAR":"-0.00003496900000","TLE_LINE2":"2 53548  53.2183 105.0185 0001291  80.2833 279.8305 15.08834176 13333","DECAY_DATE":null,"MEAN_ANOMALY":"279.8305","OBJECT_TYPE":"PAYLOAD","RCS_SIZE":"LARGE","OBJECT_NAME":"STARLINK-4513","EPOCH":"2022-11-13T16:23:16.870560","COUNTRY_CODE":"US","FILE":"3653957","REF_FRAME":"TEME","ELEMENT_SET_NO":"999","APOAPSIS":"540.656","CENTER_NAME":"EARTH","ARG_OF_PERICENTER":"80.2833","GP_ID":"217695286","RA_OF_ASC_NODE":"105.0185","TLE_LINE1":"1 53548U 22101X   22317.68283415 -.00000844  00000-0 -34969-4 0  9996","REV_AT_EPOCH":"1333"},{"TLE_LINE1":"1 53549U 22101Y   22317.69018298 -.00001226  00000-0 -58927-4 0  9998","GP_ID":"217695626","RA_OF_ASC_NODE":"104.9948","REV_AT_EPOCH":"1399","ARG_OF_PERICENTER":"81.0818","CENTER_NAME":"EARTH","APOAPSIS":"540.747","ELEMENT_SET_NO":"999","COUNTRY_CODE":"US","REF_FRAME":"TEME","FILE":"3653957","EPOCH":"2022-11-13T16:33:51.809472","OBJECT_NAME":"STARLINK-4516","RCS_SIZE":"LARGE","OBJECT_TYPE":"PAYLOAD","MEAN_ANOMALY":"279.0337","DECAY_DATE":null,"MEAN_ELEMENT_THEORY":"SGP4","TIME_SYSTEM":"UTC","NORAD_CAT_ID":"53549","TLE_LINE2":"2 53549  53.2165 104.9948 0001443  81.0818 279.0337 15.08838800 13997","BSTAR":"-0.00005892700000","CLASSIFICATION_TYPE":"U","SITE":"AFETR","MEAN_MOTION":"15.08838800","OBJECT_ID":"2022-101Y","EPHEMERIS_TYPE":"0","ECCENTRICITY":"0.00014430","INCLINATION":"53.2165","LAUNCH_DATE":"2022-08-19","SEMIMAJOR_AXIS":"6917.884","MEAN_MOTION_DOT":"-0.00001226","MEAN_MOTION_DDOT":"0.0000000000000","PERIAPSIS":"538.751","PERIOD":"95.438"},{"PERIOD":"95.438","PERIAPSIS":"538.666","MEAN_MOTION_DDOT":"0.0000000000000","MEAN_MOTION_DOT":"-0.00000714","SEMIMAJOR_AXIS":"6917.896","LAUNCH_DATE":"2022-08-19","ECCENTRICITY":"0.00015840","INCLINATION":"53.2185","EPHEMERIS_TYPE":"0","OBJECT_ID":"2022-101Z","MEAN_MOTION":"15.08834790","SITE":"AFETR","CLASSIFICATION_TYPE":"U","BSTAR":"-0.00002674800000","TLE_LINE2":"2 53550  53.2185 105.0339 0001584  68.8299 291.2862 15.08834790 13992","NORAD_CAT_ID":"53550","TIME_SYSTEM":"UTC","MEAN_ELEMENT_THEORY":"SGP4","DECAY_DATE":null,"OBJECT_TYPE":"PAYLOAD","MEAN_ANOMALY":"291.2862","RCS_SIZE":"LARGE","OBJECT_NAME":"STARLINK-4518","EPOCH":"2022-11-13T16:17:58.163424","FILE":"3653957","REF_FRAME":"TEME","COUNTRY_CODE":"US","ELEMENT_SET_NO":"999","APOAPSIS":"540.857","CENTER_NAME":"EARTH","ARG_OF_PERICENTER":"68.8299","REV_AT_EPOCH":"1399","GP_ID":"217695458","RA_OF_ASC_NODE":"105.0339","TLE_LINE1":"1 53550U 22101Z   22317.67914541 -.00000714  00000-0 -26748-4 0  9991"},{"SITE":"AFETR","MEAN_MOTION":"15.08843408","OBJECT_ID":"2022-101AA","CLASSIFICATION_TYPE":"U","MEAN_ELEMENT_THEORY":"SGP4","NORAD_CAT_ID":"53551","TIME_SYSTEM":"UTC","TLE_LINE2":"2 53551  53.2163 105.0105 0001350  73.4366 286.6775 15.08843408 13995","BSTAR":"-0.00004722400000","DECAY_DATE":null,"PERIOD":"95.437","MEAN_MOTION_DOT":"-0.00001039","MEAN_MOTION_DDOT":"0.0000000000000","PERIAPSIS":"538.801","ECCENTRICITY":"0.00013500","INCLINATION":"53.2163","SEMIMAJOR_AXIS":"6917.870","LAUNCH_DATE":"2022-08-19","EPHEMERIS_TYPE":"0","ELEMENT_SET_NO":"999","CENTER_NAME":"EARTH","APOAPSIS":"540.669","ARG_OF_PERICENTER":"73.4366","TLE_LINE1":"1 53551U 22101AA  22317.68650433 -.00001039  00000-0 -47224-4 0  9993","RA_OF_ASC_NODE":"105.0105","GP_ID":"217694704","REV_AT_EPOCH":"1399","RCS_SIZE":"LARGE","OBJECT_TYPE":"PAYLOAD","MEAN_ANOMALY":"286.6775","EPOCH":"2022-11-13T16:28:33.974112","OBJECT_NAME":"STARLINK-4514","COUNTRY_CODE":"US","REF_FRAME":"TEME","FILE":"3653957"},{"DECAY_DATE":null,"TLE_LINE2":"2 53552  53.2197 104.7688 0001458  69.3430 290.7718 15.08840203 13993","BSTAR":"0.00004029300000","MEAN_ELEMENT_THEORY":"SGP4","TIME_SYSTEM":"UTC","NORAD_CAT_ID":"53552","CLASSIFICATION_TYPE":"U","OBJECT_ID":"2022-101AB","SITE":"AFETR","MEAN_MOTION":"15.08840203","EPHEMERIS_TYPE":"0","LAUNCH_DATE":"2022-08-19","SEMIMAJOR_AXIS":"6917.880","INCLINATION":"53.2197","ECCENTRICITY":"0.00014580","MEAN_MOTION_DDOT":"0.0000000000000","PERIAPSIS":"538.736","MEAN_MOTION_DOT":"0.00000353","PERIOD":"95.438","REV_AT_EPOCH":"1399","TLE_LINE1":"1 53552U 22101AB  22317.73802825  .00000353  00000-0  40293-4 0  9999","RA_OF_ASC_NODE":"104.7688","GP_ID":"217694873","ARG_OF_PERICENTER":"69.3430","CENTER_NAME":"EARTH","APOAPSIS":"540.753","ELEMENT_SET_NO":"999","REF_FRAME":"TEME","FILE":"3653957","COUNTRY_CODE":"US","EPOCH":"2022-11-13T17:42:45.640800","OBJECT_NAME":"STARLINK-4495","RCS_SIZE":"LARGE","MEAN_ANOMALY":"290.7718","OBJECT_TYPE":"PAYLOAD"},{"REV_AT_EPOCH":"1399","TLE_LINE1":"1 53553U 22101AC  22317.67642119 -.00001155  00000-0 -54459-4 0  9993","RA_OF_ASC_NODE":"105.0434","GP_ID":"217695889","ARG_OF_PERICENTER":"83.6562","CENTER_NAME":"EARTH","APOAPSIS":"540.708","ELEMENT_SET_NO":"999","REF_FRAME":"TEME","FILE":"3653957","COUNTRY_CODE":"US","EPOCH":"2022-11-13T16:14:02.790816","OBJECT_NAME":"STARLINK-4501","RCS_SIZE":"LARGE","MEAN_ANOMALY":"276.4589","OBJECT_TYPE":"PAYLOAD","DECAY_DATE":null,"TLE_LINE2":"2 53553  53.2184 105.0434 0001394  83.6562 276.4589 15.08840542 13990","BSTAR":"-0.00005445900000","MEAN_ELEMENT_THEORY":"SGP4","TIME_SYSTEM":"UTC","NORAD_CAT_ID":"53553","CLASSIFICATION_TYPE":"U","OBJECT_ID":"2022-101AC","SITE":"AFETR","MEAN_MOTION":"15.08840542","EPHEMERIS_TYPE":"0","LAUNCH_DATE":"2022-08-19","SEMIMAJOR_AXIS":"6917.879","INCLINATION":"53.2184","ECCENTRICITY":"0.00013940","MEAN_MOTION_DDOT":"0.0000000000000","PERIAPSIS":"538.779","MEAN_MOTION_DOT":"-0.00001155","PERIOD":"95.438"},{"ELEMENT_SET_NO":"999","APOAPSIS":"540.858","CENTER_NAME":"EARTH","ARG_OF_PERICENTER":"65.8265","REV_AT_EPOCH":"1335","GP_ID":"217695721","RA_OF_ASC_NODE":"104.5071","TLE_LINE1":"1 53554U 22101AD  22317.79690952 -.00000318  00000-0 -18682-5 0  9994","OBJECT_TYPE":"PAYLOAD","MEAN_ANOMALY":"294.2891","RCS_SIZE":"LARGE","OBJECT_NAME":"STARLINK-4506","EPOCH":"2022-11-13T19:07:32.982528","FILE":"3653957","REF_FRAME":"TEME","COUNTRY_CODE":"US","OBJECT_ID":"2022-101AD","MEAN_MOTION":"15.08832379","SITE":"AFETR","CLASSIFICATION_TYPE":"U","BSTAR":"-0.00000186820000","TLE_LINE2":"2 53554  53.2202 104.5071 0001575  65.8265 294.2891 15.08832379 13359","TIME_SYSTEM":"UTC","NORAD_CAT_ID":"53554","MEAN_ELEMENT_THEORY":"SGP4","DECAY_DATE":null,"PERIOD":"95.438","PERIAPSIS":"538.679","MEAN_MOTION_DDOT":"0.0000000000000","MEAN_MOTION_DOT":"-0.00000318","SEMIMAJOR_AXIS":"6917.904","LAUNCH_DATE":"2022-08-19","INCLINATION":"53.2202","ECCENTRICITY":"0.00015750","EPHEMERIS_TYPE":"0"},{"CENTER_NAME":"EARTH","APOAPSIS":"540.781","ELEMENT_SET_NO":"999","TLE_LINE1":"1 53555U 22101AE  22317.67546814  .00000446  00000-0  46085-4 0  9996","RA_OF_ASC_NODE":"105.0476","GP_ID":"217695118","REV_AT_EPOCH":"1399","ARG_OF_PERICENTER":"75.6468","EPOCH":"2022-11-13T16:12:40.447296","OBJECT_NAME":"STARLINK-4504","RCS_SIZE":"LARGE","OBJECT_TYPE":"PAYLOAD","MEAN_ANOMALY":"284.4690","COUNTRY_CODE":"US","REF_FRAME":"TEME","FILE":"3653957","CLASSIFICATION_TYPE":"U","SITE":"AFETR","MEAN_MOTION":"15.08839458","OBJECT_ID":"2022-101AE","DECAY_DATE":null,"MEAN_ELEMENT_THEORY":"SGP4","NORAD_CAT_ID":"53555","TIME_SYSTEM":"UTC","TLE_LINE2":"2 53555  53.2185 105.0476 0001494  75.6468 284.4690 15.08839458 13992","BSTAR":"0.00004608500000","MEAN_MOTION_DOT":"0.00000446","MEAN_MOTION_DDOT":"0.0000000000000","PERIAPSIS":"538.714","PERIOD":"95.438","EPHEMERIS_TYPE":"0","ECCENTRICITY":"0.00014940","INCLINATION":"53.2185","LAUNCH_DATE":"2022-08-19","SEMIMAJOR_AXIS":"6917.882"}];
